start=new Date('2021-11-15T00:00:00.000Z').valueOf();
sats=[{"REV_AT_EPOCH":"4546","ARG_OF_PERICENTER":"50.1349","LAUNCH_DATE":"2021-01-20","PERIOD":"95.593","SITE":"AFETR","APOAPSIS":"548.235","TLE_LINE2":"2 47366  53.0562 297.5900 0001423  50.1349 309.9765 15.06388188 45469","EPHEMERIS_TYPE":"0","MEAN_MOTION":"15.06388188","OBJECT_ID":"2021-005T","RCS_SIZE":"LARGE","MEAN_MOTION_DDOT":"0.0000000000000","REF_FRAME":"TEME","SEMIMAJOR_AXIS":"6925.385","GP_ID":"189745926","RA_OF_ASC_NODE":"297.5900","MEAN_MOTION_DOT":"-0.00000009","CENTER_NAME":"EARTH","OBJECT_TYPE":"PAYLOAD","ECCENTRICITY":"0.00014230","TIME_SYSTEM":"UTC","CLASSIFICATION_TYPE":"U","BSTAR":"0.00001829100000","NORAD_CAT_ID":"47366","OBJECT_NAME":"STARLINK-2081","MEAN_ANOMALY":"309.9765","INCLINATION":"53.0562","TLE_LINE1":"1 47366U 21005T   21318.45955227 -.00000009  00000-0  18291-4 0  9993","MEAN_ELEMENT_THEORY":"SGP4","COUNTRY_CODE":"US","DECAY_DATE":null,"FILE":"3214995","ELEMENT_SET_NO":"999","EPOCH":"2021-11-14T11:01:45.316128","PERIAPSIS":"546.264"},{"REV_AT_EPOCH":"4554","ARG_OF_PERICENTER":"73.1675","LAUNCH_DATE":"2021-01-20","PERIOD":"95.592","SITE":"AFETR","TLE_LINE2":"2 47367  53.0550 295.4019 0001517  73.1675 286.9481 15.06397712 45547","APOAPSIS":"548.271","EPHEMERIS_TYPE":"0","OBJECT_ID":"2021-005U","MEAN_MOTION":"15.06397712","RCS_SIZE":"LARGE","MEAN_MOTION_DDOT":"0.0000000000000","REF_FRAME":"TEME","SEMIMAJOR_AXIS":"6925.356","GP_ID":"189774212","MEAN_MOTION_DOT":"-0.00000084","RA_OF_ASC_NODE":"295.4019","CENTER_NAME":"EARTH","OBJECT_TYPE":"PAYLOAD","ECCENTRICITY":"0.00015170","TIME_SYSTEM":"UTC","BSTAR":"0.00001323300000","CLASSIFICATION_TYPE":"U","NORAD_CAT_ID":"47367","OBJECT_NAME":"STARLINK-2082","MEAN_ANOMALY":"286.9481","INCLINATION":"53.0550","TLE_LINE1":"1 47367U 21005U   21318.94977597 -.00000084  00000-0  13233-4 0  9996","COUNTRY_CODE":"US","MEAN_ELEMENT_THEORY":"SGP4","DECAY_DATE":null,"FILE":"3215179","ELEMENT_SET_NO":"999","EPOCH":"2021-11-14T22:47:40.643808","PERIAPSIS":"546.170"},{"APOAPSIS":"548.237","TLE_LINE2":"2 47368  53.0543 295.4252 0001479  60.0388 300.0747 15.06400308 45541","SITE":"AFETR","LAUNCH_DATE":"2021-01-20","PERIOD":"95.592","REV_AT_EPOCH":"4554","ARG_OF_PERICENTER":"60.0388","GP_ID":"189774962","RA_OF_ASC_NODE":"295.4252","MEAN_MOTION_DOT":"0.00000234","CENTER_NAME":"EARTH","SEMIMAJOR_AXIS":"6925.348","MEAN_MOTION_DDOT":"0.0000000000000","REF_FRAME":"TEME","EPHEMERIS_TYPE":"0","MEAN_MOTION":"15.06400308","OBJECT_ID":"2021-005V","RCS_SIZE":"LARGE","TLE_LINE1":"1 47368U 21005V   21318.94239874  .00000234  00000-0  34623-4 0  9998","OBJECT_NAME":"STARLINK-2084","MEAN_ANOMALY":"300.0747","INCLINATION":"53.0543","BSTAR":"0.00003462300000","CLASSIFICATION_TYPE":"U","NORAD_CAT_ID":"47368","ECCENTRICITY":"0.00014790","OBJECT_TYPE":"PAYLOAD","TIME_SYSTEM":"UTC","EPOCH":"2021-11-14T22:37:03.251136","PERIAPSIS":"546.188","ELEMENT_SET_NO":"999","COUNTRY_CODE":"US","MEAN_ELEMENT_THEORY":"SGP4","DECAY_DATE":null,"FILE":"3215179"},{"MEAN_ELEMENT_THEORY":"SGP4","COUNTRY_CODE":"US","FILE":"3214995","DECAY_DATE":null,"ELEMENT_SET_NO":"999","EPOCH":"2021-11-14T10:00:41.768640","PERIAPSIS":"546.110","ECCENTRICITY":"0.00015930","OBJECT_TYPE":"PAYLOAD","TIME_SYSTEM":"UTC","BSTAR":"0.00011438000000","CLASSIFICATION_TYPE":"U","NORAD_CAT_ID":"47369","OBJECT_NAME":"STARLINK-2085","MEAN_ANOMALY":"296.5669","INCLINATION":"53.0551","TLE_LINE1":"1 47369U 21005W   21318.41715010  .00001423  00000-0  11438-3 0  9991","EPHEMERIS_TYPE":"0","RCS_SIZE":"LARGE","MEAN_MOTION":"15.06400260","OBJECT_ID":"2021-005W","REF_FRAME":"TEME","MEAN_MOTION_DDOT":"0.0000000000000","SEMIMAJOR_AXIS":"6925.348","RA_OF_ASC_NODE":"277.7885","MEAN_MOTION_DOT":"0.00001423","GP_ID":"189746177","CENTER_NAME":"EARTH","REV_AT_EPOCH":"4574","ARG_OF_PERICENTER":"63.5483","LAUNCH_DATE":"2021-01-20","PERIOD":"95.592","SITE":"AFETR","TLE_LINE2":"2 47369  53.0551 277.7885 0001593  63.5483 296.5669 15.06400260 45748","APOAPSIS":"548.316"},{"MEAN_ELEMENT_THEORY":"SGP4","COUNTRY_CODE":"US","FILE":"3214995","DECAY_DATE":null,"ELEMENT_SET_NO":"999","EPOCH":"2021-11-14T07:24:07.117344","PERIAPSIS":"545.977","ECCENTRICITY":"0.00017780","OBJECT_TYPE":"PAYLOAD","TIME_SYSTEM":"UTC","BSTAR":"0.00014610000000","CLASSIFICATION_TYPE":"U","NORAD_CAT_ID":"47370","OBJECT_NAME":"STARLINK-2086","MEAN_ANOMALY":"297.7505","INCLINATION":"53.0608","TLE_LINE1":"1 47370U 21005X   21318.30841571  .00001895  00000-0  14610-3 0  9991","EPHEMERIS_TYPE":"0","RCS_SIZE":"LARGE","MEAN_MOTION":"15.06401633","OBJECT_ID":"2021-005X","REF_FRAME":"TEME","MEAN_MOTION_DDOT":"0.0000000000000","SEMIMAJOR_AXIS":"6925.344","RA_OF_ASC_NODE":"258.2569","MEAN_MOTION_DOT":"0.00001895","GP_ID":"189746427","CENTER_NAME":"EARTH","REV_AT_EPOCH":"4601","ARG_OF_PERICENTER":"62.3664","LAUNCH_DATE":"2021-01-20","PERIOD":"95.592","SITE":"AFETR","TLE_LINE2":"2 47370  53.0608 258.2569 0001778  62.3664 297.7505 15.06401633 46017","APOAPSIS":"548.440"},{"MEAN_MOTION_DDOT":"0.0000000000000","REF_FRAME":"TEME","OBJECT_ID":"2021-005Y","MEAN_MOTION":"15.06401567","RCS_SIZE":"LARGE","EPHEMERIS_TYPE":"0","CENTER_NAME":"EARTH","GP_ID":"189774712","RA_OF_ASC_NODE":"295.6554","MEAN_MOTION_DOT":"0.00001528","SEMIMAJOR_AXIS":"6925.344","PERIOD":"95.592","LAUNCH_DATE":"2021-01-20","ARG_OF_PERICENTER":"72.7298","REV_AT_EPOCH":"4553","APOAPSIS":"548.431","TLE_LINE2":"2 47371  53.0549 295.6554 0001765  72.7298 287.3884 15.06401567 45532","SITE":"AFETR","ELEMENT_SET_NO":"999","DECAY_DATE":null,"FILE":"3215179","COUNTRY_CODE":"US","MEAN_ELEMENT_THEORY":"SGP4","PERIAPSIS":"545.986","EPOCH":"2021-11-14T21:22:44.612832","NORAD_CAT_ID":"47371","CLASSIFICATION_TYPE":"U","BSTAR":"0.00012148000000","TIME_SYSTEM":"UTC","ECCENTRICITY":"0.00017650","OBJECT_TYPE":"PAYLOAD","TLE_LINE1":"1 47371U 21005Y   21318.89079413  .00001528  00000-0  12148-3 0  9991","MEAN_ANOMALY":"287.3884","INCLINATION":"53.0549","OBJECT_NAME":"STARLINK-2088"},{"ELEMENT_SET_NO":"999","DECAY_DATE":null,"FILE":"3214995","COUNTRY_CODE":"US","MEAN_ELEMENT_THEORY":"SGP4","PERIAPSIS":"546.035","EPOCH":"2021-11-14T10:58:23.574720","NORAD_CAT_ID":"47372","CLASSIFICATION_TYPE":"U","BSTAR":"0.00000222910000","TIME_SYSTEM":"UTC","OBJECT_TYPE":"PAYLOAD","ECCENTRICITY":"0.00017210","TLE_LINE1":"1 47372U 21005Z   21318.45721730 -.00000248  00000-0  22291-5 0  9991","MEAN_ANOMALY":"306.3441","INCLINATION":"53.0544","OBJECT_NAME":"STARLINK-2089","MEAN_MOTION_DDOT":"0.0000000000000","REF_FRAME":"TEME","MEAN_MOTION":"15.06395556","OBJECT_ID":"2021-005Z","RCS_SIZE":"LARGE","EPHEMERIS_TYPE":"0","CENTER_NAME":"EARTH","GP_ID":"189746927","MEAN_MOTION_DOT":"-0.00000248","RA_OF_ASC_NODE":"292.5902","SEMIMAJOR_AXIS":"6925.362","PERIOD":"95.592","LAUNCH_DATE":"2021-01-20","ARG_OF_PERICENTER":"53.7707","REV_AT_EPOCH":"4553","APOAPSIS":"548.419","TLE_LINE2":"2 47372  53.0544 292.5902 0001721  53.7707 306.3441 15.06395556 45538","SITE":"AFETR"},{"SEMIMAJOR_AXIS":"6925.373","CENTER_NAME":"EARTH","RA_OF_ASC_NODE":"297.7500","MEAN_MOTION_DOT":"-0.00000529","GP_ID":"189745677","RCS_SIZE":"LARGE","MEAN_MOTION":"15.06392127","OBJECT_ID":"2021-005AA","EPHEMERIS_TYPE":"0","REF_FRAME":"TEME","MEAN_MOTION_DDOT":"0.0000000000000","SITE":"AFETR","APOAPSIS":"548.292","TLE_LINE2":"2 47373  53.0544 297.7500 0001522  67.7493 292.3657 15.06392127 45462","ARG_OF_PERICENTER":"67.7493","REV_AT_EPOCH":"4546","PERIOD":"95.593","LAUNCH_DATE":"2021-01-20","PERIAPSIS":"546.184","EPOCH":"2021-11-14T10:08:40.273440","FILE":"3214995","DECAY_DATE":null,"MEAN_ELEMENT_THEORY":"SGP4","COUNTRY_CODE":"US","ELEMENT_SET_NO":"999","INCLINATION":"53.0544","MEAN_ANOMALY":"292.3657","OBJECT_NAME":"STARLINK-2092","TLE_LINE1":"1 47373U 21005AA  21318.42268835 -.00000529  00000-0 -16610-4 0  9991","TIME_SYSTEM":"UTC","ECCENTRICITY":"0.00015220","OBJECT_TYPE":"PAYLOAD","NORAD_CAT_ID":"47373","BSTAR":"-0.00001661000000","CLASSIFICATION_TYPE":"U"},{"SEMIMAJOR_AXIS":"6927.857","MEAN_MOTION_DOT":"0.00001261","RA_OF_ASC_NODE":"295.6429","GP_ID":"189773461","CENTER_NAME":"EARTH","EPHEMERIS_TYPE":"0","RCS_SIZE":"LARGE","OBJECT_ID":"2021-005AB","MEAN_MOTION":"15.05582076","REF_FRAME":"TEME","MEAN_MOTION_DDOT":"0.0000000000000","SITE":"AFETR","APOAPSIS":"550.830","TLE_LINE2":"2 47374  53.0532 295.6429 0001600  63.4128 296.7024 15.05582076 45539","REV_AT_EPOCH":"4553","ARG_OF_PERICENTER":"63.4128","LAUNCH_DATE":"2021-01-20","PERIOD":"95.644","EPOCH":"2021-11-14T21:45:38.324448","PERIAPSIS":"548.613","MEAN_ELEMENT_THEORY":"SGP4","COUNTRY_CODE":"US","FILE":"3215179","DECAY_DATE":null,"ELEMENT_SET_NO":"999","OBJECT_NAME":"STARLINK-2093","MEAN_ANOMALY":"296.7024","INCLINATION":"53.0532","TLE_LINE1":"1 47374U 21005AB  21318.90669357  .00001261  00000-0  10567-3 0  9995","OBJECT_TYPE":"PAYLOAD","ECCENTRICITY":"0.00016000","TIME_SYSTEM":"UTC","BSTAR":"0.00010567000000","CLASSIFICATION_TYPE":"U","NORAD_CAT_ID":"47374"},{"REF_FRAME":"TEME","MEAN_MOTION_DDOT":"0.0000000000000","EPHEMERIS_TYPE":"0","RCS_SIZE":"LARGE","OBJECT_ID":"2021-005AC","MEAN_MOTION":"15.06390154","RA_OF_ASC_NODE":"295.5636","MEAN_MOTION_DOT":"-0.00000269","GP_ID":"189774213","CENTER_NAME":"EARTH","SEMIMAJOR_AXIS":"6925.379","LAUNCH_DATE":"2021-01-20","PERIOD":"95.593","REV_AT_EPOCH":"4553","ARG_OF_PERICENTER":"68.4502","TLE_LINE2":"2 47375  53.0553 295.5636 0001658  68.4502 291.6663 15.06390154 45534","APOAPSIS":"548.392","SITE":"AFETR","ELEMENT_SET_NO":"999","MEAN_ELEMENT_THEORY":"SGP4","COUNTRY_CODE":"US","FILE":"3215179","DECAY_DATE":null,"EPOCH":"2021-11-14T21:54:36.268128","PERIAPSIS":"546.096","CLASSIFICATION_TYPE":"U","BSTAR":"0.00000086697000","NORAD_CAT_ID":"47375","OBJECT_TYPE":"PAYLOAD","ECCENTRICITY":"0.00016580","TIME_SYSTEM":"UTC","TLE_LINE1":"1 47375U 21005AC  21318.91291977 -.00000269  00000-0  86697-6 0  9994","OBJECT_NAME":"STARLINK-2094","MEAN_ANOMALY":"291.6663","INCLINATION":"53.0553"}];
